AXSDUB52F5
HFDTE050824
HFPLTPILOTINCHARGE:
HFCM2CREW2:NIL
HFGTYGLIDERTYPE:NKN
HFGIDGLIDERID:NKN
HFCIDCOMPETITIONID:NKN
HFDTMGPSDATUM:WGS84
HFRFWFIRMWAREVERSION:2023-06-30:1fe35e9c
HFRHWHARDWAREVERSION:ULTRABIP 1.0
HFFTYFRTYPE:STODEUS,ULTRABIP
HFGPSRECEIVER:GOTOP,GT1110SN,22,18000
HFTZNTIMEZONE:2
HFPRSPRESSALTSENSOR:INFINEON,DPS310,7000
HFALGALTGPS:GEO
HFALPALTPRESSURE:ISA
LMMMGPSPERIOD1000MSEC
I023638FXA3940SIU
B1617384754589N00753361EA011230117300308
B1617394754589N00753356EA011230117200308
B1617404754589N00753350EA011200117100308
B1617414754589N00753343EA011200116900308
B1617424754589N00753336EA011190116700308
B1617434754590N00753329EA011170116600308
B1617444754591N00753322EA011160116400308
B1617454754592N00753315EA011140116200308
B1617464754594N00753308EA011120116000308
B1617474754595N00753302EA011100115800308
B1617484754597N00753295EA011090115600308
B1617494754599N00753288EA011080115400308
B1617504754602N00753281EA011060115300308
B1617514754605N00753275EA011040115200308
B1617524754607N00753269EA011040115200308
B1617534754610N00753263EA011040115200308
B1617544754612N00753257EA011040115200308
B1617554754614N00753252EA011020115200308
B1617564754616N00753245EA011020115100308
B1617574754618N00753239EA011010115000308
B1617584754620N00753233EA011000114800308
B1617594754622N00753227EA010950114600308
B1618004754624N00753221EA010930114300308
B1618014754627N00753214EA010930114100308
B1618024754630N00753207EA010920113900308
B1618034754634N00753202EA010910113800308
B1618044754638N00753197EA010920113700308
B1618054754642N00753193EA010910113600308
B1618064754647N00753190EA010910113600308
B1618074754652N00753188EA010900113500308
B1618084754656N00753187EA010910113400308
B1618094754661N00753186EA010910113400308
B1618104754665N00753185EA010910113300308
B1618114754669N00753184EA010890113200308
B1618124754673N00753180EA010900113100308
B1618134754677N00753175EA010900113100308
B1618144754679N00753168EA010900113000308
B1618154754681N00753161EA010900113000308
B1618164754681N00753154EA010900113000308
B1618174754679N00753148EA010880113000308
B1618184754678N00753142EA010850112900308
B1618194754677N00753135EA010830112700308
B1618204754677N00753128EA010800112600308
B1618214754678N00753121EA010770112400308
B1618224754681N00753115EA010750112100308
B1618234754684N00753110EA010730111900308
B1618244754688N00753106EA010710111700308
B1618254754692N00753102EA010710111600308
B1618264754697N00753098EA010700111400209
B1618274754701N00753093EA010680111400209
B1618284754706N00753088EA010660111300209
B1618294754711N00753084EA010660111200209
B1618304754715N00753081EA010660111100209
B1618314754719N00753078EA010650111000209
B1618324754723N00753076EA010640110900209
B1618334754728N00753074EA010630110800209
B1618344754732N00753073EA010650110700209
B1618354754737N00753074EA010640110700209
B1618364754741N00753076EA010620110600209
B1618374754745N00753078EA010610110600209
B1618384754750N00753079EA010590110500209
B1618394754754N00753082EA010590110300209
B1618404754758N00753085EA010590110200209
B1618414754763N00753089EA010590110200209
B1618424754767N00753093EA010600110200209
B1618434754771N00753097EA010600110300209
B1618444754774N00753100EA010580110300209
B1618454754777N00753103EA010580110300209
B1618464754780N00753107EA010570110100209
B1618474754784N00753112EA010570110000209
B1618484754787N00753116EA010560109900209
B1618494754790N00753121EA010560109900209
B1618504754793N00753126EA010550109900209
B1618514754796N00753130EA010560109900209
B1618524754799N00753134EA010540109800209
B1618534754802N00753139EA010530109700209
B1618544754805N00753143EA010520109600209
B1618554754808N00753148EA010510109500209
B1618564754812N00753152EA010500109400209
B1618574754815N00753156EA010470109300209
B1618584754818N00753161EA010450109100209
B1618594754822N00753165EA010430108800209
B1619004754826N00753168EA010410108600209
B1619014754831N00753171EA010390108400209
B1619024754835N00753172EA010390108300209
B1619034754840N00753173EA010370108200209
B1619044754845N00753174EA010360108100209
B1619054754850N00753176EA010340108000209
B1619064754854N00753177EA010330107900209
B1619074754859N00753178EA010320107700209
B1619084754864N00753178EA010290107500209
B1619094754869N00753179EA010270107300209
B1619104754874N00753179EA010260107100209
B1619114754879N00753178EA010230106900209
B1619124754884N00753178EA010210106700209
B1619134754889N00753177EA010200106500209
B1619144754894N00753176EA010190106300209
B1619154754899N00753176EA010170106200209
B1619164754905N00753175EA010160106000209
B1619174754910N00753175EA010160105900209
B1619184754915N00753176EA010150105900209
B1619194754920N00753177EA010140105800209
B1619204754926N00753177EA010130105700209
B1619214754931N00753178EA010110105500209
B1619224754936N00753179EA010090105400209
B1619234754941N00753180EA010070105200209
B1619244754947N00753182EA010060105000209
B1619254754952N00753184EA010050104900209
B1619264754957N00753186EA010040104800209
B1619274754962N00753188EA010020104700209
B1619284754967N00753189EA010010104600209
B1619294754972N00753189EA010000104400209
B1619304754977N00753189EA010000104300209
B1619314754983N00753189EA010020104200209
B1619324754988N00753189EA010010104300209
B1619334754993N00753189EA010000104300209
B1619344754998N00753188EA009990104300209
B1619354755003N00753187EA009980104200209
B1619364755008N00753187EA009970104000209
B1619374755013N00753186EA009970103900209
B1619384755018N00753186EA009960103800209
B1619394755023N00753185EA009950103700209
B1619404755028N00753184EA009940103600209
B1619414755032N00753184EA009930103500209
B1619424755037N00753183EA009910103400209
B1619434755041N00753182EA009910103300209
B1619444755046N00753181EA009910103300209
B1619454755050N00753178EA009880103200209
B1619464755054N00753175EA009870103000209
B1619474755059N00753172EA009870102900209
B1619484755063N00753168EA009860102800209
B1619494755068N00753165EA009860102700209
B1619504755073N00753162EA009850102600209
B1619514755077N00753159EA009850102500209
B1619524755082N00753155EA009830102500209
B1619534755086N00753151EA009830102400209
B1619544755089N00753147EA009820102400209
B1619554755093N00753143EA009810102200209
B1619564755098N00753140EA009790102100209
B1619574755102N00753137EA009780101900209
B1619584755106N00753133EA009760101700209
B1619594755110N00753128EA009730101500209
B1620004755115N00753124EA009730101400209
B1620014755119N00753120EA009730101400209
B1620024755123N00753116EA009710101300209
B1620034755127N00753113EA009700101200209
B1620044755132N00753109EA009680101000209
B1620054755136N00753105EA009660100800209
B1620064755140N00753101EA009650100700209
B1620074755143N00753097EA009650100600209
B1620084755146N00753092EA009630100500209
B1620094755149N00753087EA009620100400209
B1620104755150N00753082EA009600100200209
B1620114755152N00753075EA009590100000209
B1620124755154N00753069EA009580099900209
B1620134755156N00753063EA009570099800209
B1620144755158N00753056EA009560099600209
B1620154755160N00753049EA009560099500209
B1620164755162N00753043EA009550099500209
B1620174755164N00753036EA009550099500209
B1620184755167N00753030EA009560099500209
B1620194755170N00753024EA009560099600209
B1620204755174N00753020EA009580099600209
B1620214755177N00753016EA009560099600209
B1620224755180N00753011EA009560099600209
B1620234755185N00753008EA009560099600209
B1620244755189N00753006EA009560099600209
B1620254755194N00753004EA009580099600209
B1620264755199N00753003EA009570099600209
B1620274755204N00753001EA009560099600209
B1620284755208N00752999EA009560099600209
B1620294755212N00752997EA009560099600209
B1620304755217N00752996EA009560099600209
B1620314755221N00752994EA009560099600209
B1620324755225N00752991EA009570099500209
B1620334755229N00752987EA009560099500209
B1620344755232N00752982EA009550099500209
B1620354755235N00752978EA009540099500209
B1620364755238N00752976EA009530099500209
B1620374755241N00752973EA009520099400209
B1620384755243N00752969EA009500099200209
B1620394755246N00752964EA009480099100209
B1620404755250N00752958EA009490099100209
B1620414755253N00752953EA009510099100209
B1620424755256N00752949EA009520099100209
B1620434755259N00752946EA009510099100209
B1620444755261N00752941EA009500099000209
B1620454755263N00752937EA009480099000209
B1620464755265N00752933EA009480098900209
B1620474755268N00752930EA009470098800209
B1620484755272N00752927EA009480098800209
B1620494755275N00752925EA009470098700209
B1620504755277N00752922EA009450098600209
B1620514755279N00752917EA009430098500209
B1620524755279N00752911EA009420098400209
B1620534755280N00752905EA009400098200209
B1620544755282N00752899EA009390098000209
B1620554755285N00752895EA009380097900209
B1620564755288N00752892EA009380097800209
B1620574755292N00752889EA009360097700209
B1620584755295N00752886EA009370097600209
B1620594755297N00752882EA009370097600209
B1621004755300N00752878EA009350097600209
B1621014755303N00752874EA009360097600209
B1621024755305N00752871EA009360097700209
B1621034755307N00752867EA009340097700209
B1621044755308N00752863EA009330097600209
B1621054755310N00752858EA009330097400209
B1621064755312N00752853EA009310097200209
B1621074755315N00752849EA009300097000209
B1621084755319N00752846EA009300097000209
B1621094755323N00752844EA009300097000209
B1621104755327N00752843EA009310097000209
B1621114755331N00752842EA009300097000209
B1621124755334N00752841EA009300097000209
B1621134755338N00752841EA009300097000209
B1621144755342N00752843EA009310097000209
B1621154755346N00752845EA009300097000209
B1621164755350N00752848EA009320097100209
B1621174755354N00752852EA009320097100209
B1621184755357N00752856EA009310097100209
B1621194755361N00752860EA009300097100209
B1621204755364N00752864EA009280097000209
B1621214755368N00752868EA009250096900209
B1621224755371N00752869EA009230096800209
B1621234755375N00752867EA009220096800209
B1621244755379N00752863EA009210096700209
B1621254755381N00752858EA009200096600309
B1621264755381N00752851EA009190096500309
B1621274755380N00752844EA009180096400309
B1621284755379N00752838EA009190096300309
B1621294755377N00752831EA009180096100309
B1621304755375N00752824EA009160096000309
B1621314755374N00752817EA009150095900309
B1621324755374N00752810EA009130095700309
B1621334755374N00752803EA009130095600309
B1621344755374N00752796EA009120095500309
B1621354755374N00752789EA009120095400309
B1621364755374N00752783EA009110095300309
B1621374755374N00752776EA009100095300309
B1621384755374N00752770EA009100095200309
B1621394755375N00752763EA009090095100309
B1621404755375N00752756EA009080095100309
B1621414755375N00752749EA009070095000309
B1621424755375N00752743EA009060094900309
B1621434755375N00752736EA009060094900309
B1621444755376N00752729EA009060094800309
B1621454755377N00752723EA009050094700309
B1621464755377N00752716EA009030094600309
B1621474755377N00752709EA009020094500309
B1621484755378N00752703EA009010094300309
B1621494755379N00752696EA009000094200309
B1621504755381N00752690EA008990094100309
B1621514755383N00752684EA008980094000309
B1621524755384N00752678EA008970093900309
B1621534755385N00752672EA008960093800309
B1621544755386N00752666EA008960093700309
B1621554755388N00752659EA008950093600309
B1621564755389N00752653EA008940093500309
B1621574755391N00752647EA008930093500309
B1621584755393N00752641EA008930093500309
B1621594755394N00752636EA008930093500309
B1622004755395N00752632EA008920093400309
B1622014755397N00752628EA008900093200309
B1622024755400N00752624EA008890093100309
B1622034755403N00752621EA008880093000309
B1622044755406N00752616EA008880092900309
B1622054755408N00752612EA008880092900309
B1622064755410N00752606EA008880092900309
B1622074755411N00752600EA008870092900309
B1622084755412N00752595EA008870092900309
B1622094755413N00752589EA008860092800309
B1622104755414N00752584EA008850092800309
B1622114755414N00752578EA008840092600309
B1622124755413N00752571EA008830092500309
B1622134755412N00752565EA008830092400309
B1622144755412N00752558EA008830092400309
B1622154755411N00752552EA008830092400309
B1622164755411N00752547EA008820092400309
B1622174755410N00752541EA008820092300309
B1622184755409N00752536EA008800092200309
B1622194755409N00752529EA008790092000309
B1622204755409N00752523EA008780091900309
B1622214755410N00752516EA008780091800309
B1622224755411N00752510EA008770091800309
B1622234755412N00752504EA008760091700309
B1622244755415N00752499EA008760091600309
B1622254755417N00752495EA008750091500309
B1622264755421N00752491EA008750091500309
B1622274755424N00752488EA008740091400309
B1622284755427N00752486EA008730091400309
B1622294755431N00752484EA008730091300309
B1622304755434N00752481EA008720091200309
B1622314755436N00752476EA008720091100309
B1622324755438N00752471EA008720091000309
B1622334755439N00752465EA008700090900309
B1622344755439N00752458EA008700090900309
B1622354755438N00752452EA008690090800309
B1622364755437N00752446EA008680090800309
B1622374755435N00752440EA008670090700309
B1622384755433N00752434EA008660090600309
B1622394755431N00752428EA008650090500309
B1622404755429N00752422EA008630090400309
B1622414755427N00752417EA008620090300309
B1622424755425N00752411EA008610090200309
B1622434755424N00752404EA008580090000309
B1622444755424N00752398EA008570089800309
B1622454755425N00752392EA008550089600309
B1622464755426N00752385EA008530089400309
B1622474755428N00752380EA008510089200309
B1622484755431N00752375EA008490089000309
B1622494755434N00752373EA008470088800309
B1622504755438N00752372EA008440088600309
B1622514755442N00752373EA008430088400309
B1622524755446N00752375EA008420088300309
B1622534755450N00752378EA008400088200309
B1622544755454N00752382EA008380088000309
B1622554755457N00752387EA008360087700309
B1622564755461N00752394EA008340087400309
B1622574755465N00752399EA008330087200309
B1622584755469N00752403EA008320087100309
B1622594755473N00752405EA008300086900309
B1623004755477N00752405EA008270086600309
B1623014755482N00752405EA008250086400309
B1623024755486N00752403EA008250086300309
B1623034755491N00752402EA008220086100309
B1623044755496N00752400EA008210086000309
B1623054755500N00752398EA008190085800309
B1623064755503N00752395EA008180085700309
B1623074755506N00752392EA008160085600309
B1623084755509N00752387EA008140085400309
B1623094755511N00752382EA008120085200309
B1623104755511N00752376EA008090085000309
B1623114755511N00752369EA008070084700309
B1623124755511N00752362EA008060084500309
B1623134755509N00752355EA008040084300309
B1623144755507N00752348EA008020084100309
B1623154755505N00752342EA008000083900309
B1623164755503N00752336EA007970083700309
B1623174755501N00752330EA007950083500309
B1623184755500N00752323EA007930083300309
B1623194755499N00752316EA007920083100309
B1623204755498N00752310EA007900082900309
B1623214755498N00752303EA007890082700309
B1623224755498N00752297EA007870082500309
B1623234755498N00752290EA007860082300309
B1623244755499N00752284EA007850082100309
B1623254755501N00752278EA007850082000309
B1623264755504N00752273EA007840081900309
B1623274755507N00752269EA007840081800309
B1623284755511N00752266EA007830081800309
B1623294755514N00752264EA007810081700309
B1623304755518N00752263EA007800081500309
B1623314755522N00752261EA007800081400309
B1623324755526N00752260EA007780081300309
B1623334755530N00752257EA007760081200309
B1623344755533N00752253EA007760081100309
B1623354755535N00752248EA007750081000309
B1623364755535N00752241EA007770080900309
B1623374755535N00752234EA007780081000309
B1623384755533N00752229EA007780080900309
B1623394755529N00752224EA007790080900309
B1623404755525N00752221EA007790080800309
B1623414755521N00752219EA007790080800309
B1623424755516N00752219EA007790080700309
B1623434755512N00752222EA007780080800309
B1623444755507N00752226EA007780080700309
B1623454755503N00752233EA007760080700309
B1623464755501N00752241EA007760080700309
B1623474755500N00752249EA007740080700309
B1623484755502N00752256EA007730080600309
B1623494755506N00752262EA007730080400309
B1623504755511N00752265EA007720080300309
B1623514755515N00752265EA007700080300309
B1623524755519N00752263EA007710080200309
B1623534755522N00752259EA007710080200309
B1623544755526N00752255EA007700080300309
B1623554755529N00752251EA007710080300309
B1623564755532N00752246EA007720080400309
B1623574755534N00752242EA007730080500309
B1623584755536N00752237EA007720080600309
B1623594755537N00752230EA007740080700309
B1624004755537N00752224EA007740080800309
B1624014755536N00752217EA007730080900309
B1624024755534N00752212EA007730080900309
B1624034755531N00752207EA007710080800309
B1624044755527N00752204EA007710080600309
B1624054755522N00752201EA007690080500309
B1624064755517N00752199EA007680080400309
B1624074755511N00752200EA007660080300309
B1624084755505N00752203EA007650080200309
B1624094755500N00752208EA007640080100309
B1624104755496N00752216EA007640080000309
B1624114755494N00752224EA007620079900309
B1624124755496N00752235EA007640079700309
B1624134755498N00752242EA007640079500309
B1624144755503N00752247EA007640079500309
B1624154755508N00752248EA007650079500309
B1624164755513N00752247EA007650079600309
B1624174755517N00752245EA007660079700309
B1624184755521N00752243EA007650079700309
B1624194755525N00752241EA007660079700309
B1624204755530N00752239EA007660079800309
B1624214755534N00752238EA007680079900309
B1624224755538N00752236EA007690080000309
B1624234755542N00752235EA007700080100309
B1624244755546N00752234EA007700080200309
B1624254755550N00752232EA007690080200309
B1624264755553N00752228EA007690080100309
B1624274755555N00752223EA007700080200309
B1624284755557N00752216EA007700080300309
B1624294755558N00752210EA007710080400309
B1624304755558N00752203EA007710080500309
B1624314755556N00752197EA007710080500309
B1624324755553N00752191EA007710080600309
B1624334755549N00752186EA007720080600309
B1624344755544N00752184EA007720080700309
B1624354755537N00752184EA007720080700309
B1624364755532N00752189EA007720080800309
B1624374755527N00752195EA007720080800309
B1624384755524N00752203EA007720080900309
B1624394755523N00752211EA007720081100308
B1624404755523N00752218EA007710081100308
B1624414755525N00752226EA007710081100309
B1624424755528N00752232EA007710081100308
B1624434755532N00752236EA007720081100308
B1624444755537N00752237EA007720081100308
B1624454755541N00752234EA007730081100308
B1624464755545N00752229EA007740081200309
B1624474755547N00752224EA007740081300309
B1624484755549N00752218EA007760081300309
B1624494755550N00752213EA007760081300309
B1624504755551N00752206EA007760081300309
B1624514755552N00752199EA007770081300309
B1624524755552N00752191EA007780081400309
B1624534755551N00752184EA007800081500309
B1624544755549N00752178EA007800081600309
B1624554755547N00752174EA007790081700309
B1624564755543N00752171EA007790081700309
B1624574755538N00752168EA007790081700309
B1624584755533N00752168EA007780081600309
B1624594755527N00752169EA007780081500309
B1625004755522N00752173EA007770081500308
B1625014755518N00752179EA007760081500308
B1625024755514N00752187EA007740081500308
B1625034755513N00752195EA007750081400308
B1625044755512N00752203EA007750081400308
B1625054755512N00752212EA007740081400308
B1625064755514N00752219EA007730081400308
B1625074755517N00752224EA007720081400309
B1625084755521N00752227EA007720081300309
B1625094755526N00752227EA007730081200309
B1625104755531N00752225EA007730081200309
B1625114755535N00752220EA007740081200309
B1625124755538N00752214EA007750081300309
B1625134755541N00752209EA007770081400309
B1625144755543N00752203EA007770081400309
B1625154755547N00752199EA007770081500309
B1625164755551N00752195EA007790081500309
B1625174755554N00752192EA007810081700309
B1625184755557N00752189EA007800081800309
B1625194755560N00752186EA007790081900309
B1625204755561N00752183EA007770081900309
B1625214755562N00752179EA007740081800309
B1625224755562N00752174EA007730081700309
B1625234755561N00752168EA007710081700309
B1625244755558N00752161EA007700081600309
B1625254755553N00752157EA007690081500309
B1625264755548N00752153EA007690081500309
B1625274755542N00752152EA007680081300309
B1625284755536N00752152EA007680081100309
B1625294755530N00752152EA007660080900309
B1625304755524N00752155EA007650080800309
B1625314755518N00752160EA007630080700308
B1625324755514N00752168EA007610080600309
B1625334755511N00752177EA007600080500309
B1625344755510N00752186EA007590080400309
B1625354755511N00752195EA007580080400309
B1625364755512N00752203EA007570080300309
B1625374755515N00752210EA007550080200309
B1625384755520N00752214EA007550080100309
B1625394755526N00752214EA007550080000309
B1625404755531N00752213EA007550079900309
B1625414755536N00752210EA007550080000309
B1625424755541N00752207EA007560080000309
B1625434755545N00752205EA007570080000309
B1625444755549N00752203EA007580080000309
B1625454755553N00752202EA007590080000309
B1625464755558N00752201EA007580079900309
B1625474755562N00752201EA007560079900309
B1625484755566N00752202EA007560079700309
B1625494755569N00752202EA007530079500309
B1625504755574N00752201EA007520079200309
B1625514755577N00752198EA007510079100309
B1625524755580N00752192EA007500079000309
B1625534755580N00752186EA007490078900309
B1625544755579N00752179EA007500078900309
B1625554755578N00752172EA007500078900309
B1625564755577N00752165EA007500078900309
B1625574755576N00752159EA007500078900309
B1625584755576N00752153EA007480078800309
B1625594755579N00752147EA007470078600309
B1626004755582N00752142EA007480078500309
B1626014755586N00752138EA007480078500309
B1626024755591N00752136EA007480078500309
B1626034755596N00752137EA007490078500309
B1626044755601N00752141EA007500078500309
B1626054755605N00752146EA007510078600309
B1626064755608N00752152EA007500078700309
B1626074755610N00752159EA007510078700309
B1626084755611N00752168EA007510078700309
B1626094755610N00752177EA007490078500309
B1626104755608N00752186EA007480078500309
B1626114755604N00752193EA007470078400309
B1626124755599N00752199EA007470078200309
B1626134755594N00752203EA007450078200309
B1626144755588N00752205EA007460078100309
B1626154755582N00752205EA007460078000309
B1626164755577N00752202EA007460078000309
B1626174755573N00752198EA007460078100309
B1626184755569N00752193EA007470078100309
B1626194755565N00752188EA007480078200309
B1626204755562N00752183EA007480078300309
B1626214755559N00752178EA007490078400309
B1626224755556N00752174EA007490078300309
B1626234755553N00752169EA007490078200309
B1626244755550N00752163EA007480078100309
B1626254755550N00752156EA007470078000309
B1626264755551N00752150EA007470077900309
B1626274755554N00752144EA007460077900309
B1626284755557N00752140EA007460078000309
B1626294755561N00752138EA007460078000309
B1626304755565N00752137EA007450077900309
B1626314755569N00752138EA007440077800309
B1626324755574N00752140EA007440077800309
B1626334755578N00752145EA007450077800309
B1626344755582N00752151EA007450077800309
B1626354755585N00752158EA007460077900309
B1626364755587N00752166EA007470078000309
B1626374755587N00752175EA007480078000309
B1626384755586N00752183EA007480078100309
B1626394755584N00752190EA007490078200309
B1626404755580N00752196EA007500078200309
B1626414755576N00752201EA007520078300309
B1626424755571N00752203EA007530078300309
B1626434755565N00752204EA007530078300309
B1626444755561N00752202EA007540078500309
B1626454755558N00752199EA007540078500309
B1626464755554N00752195EA007530078600309
B1626474755551N00752189EA007530078600309
B1626484755550N00752183EA007530078500309
B1626494755551N00752176EA007530078500309
B1626504755553N00752171EA007520078400309
B1626514755556N00752166EA007520078400309
B1626524755560N00752163EA007530078400309
B1626534755564N00752162EA007530078400309
B1626544755569N00752162EA007530078400309
B1626554755573N00752165EA007530078400309
B1626564755577N00752168EA007530078400309
B1626574755580N00752173EA007540078500309
B1626584755584N00752180EA007540078500309
B1626594755586N00752188EA007540078600309
B1627004755586N00752196EA007540078700309
B1627014755585N00752205EA007550078700309
B1627024755583N00752213EA007540078700309
B1627034755580N00752219EA007540078800309
B1627044755575N00752224EA007550078800309
B1627054755569N00752226EA007550078800309
B1627064755564N00752227EA007560078800309
B1627074755559N00752224EA007570078900309
B1627084755554N00752220EA007570079000309
B1627094755551N00752215EA007580079100309
B1627104755549N00752209EA007580079100309
B1627114755548N00752203EA007580079000309
B1627124755548N00752197EA007560079000309
B1627134755549N00752192EA007560078900309
B1627144755552N00752186EA007570078900309
B1627154755554N00752182EA007560078900309
B1627164755559N00752179EA007570078800309
B1627174755563N00752179EA007570078800309
B1627184755568N00752181EA007560078800309
B1627194755572N00752184EA007570078900309
B1627204755576N00752188EA007560078900309
B1627214755579N00752194EA007580079000309
B1627224755581N00752202EA007570079000309
B1627234755582N00752210EA007590079000309
B1627244755582N00752219EA007590079100309
B1627254755580N00752228EA007590079100309
B1627264755577N00752235EA007580079200309
B1627274755573N00752242EA007570079200309
B1627284755569N00752247EA007560079100309
B1627294755564N00752250EA007560079000309
B1627304755558N00752251EA007570078900309
B1627314755552N00752250EA007550078800309
B1627324755547N00752246EA007550078800309
B1627334755543N00752241EA007560078900309
B1627344755540N00752236EA007560079000309
B1627354755537N00752231EA007570079100309
B1627364755535N00752226EA007570079100309
B1627374755533N00752221EA007560079000309
B1627384755532N00752215EA007560078900309
B1627394755531N00752209EA007550078800309
B1627404755531N00752203EA007540078700309
B1627414755533N00752197EA007530078700309
B1627424755535N00752191EA007520078600309
B1627434755539N00752187EA007510078500309
B1627444755543N00752185EA007500078400309
B1627454755548N00752185EA007510078300309
B1627464755552N00752187EA007500078300309
B1627474755556N00752191EA007490078300309
B1627484755560N00752197EA007480078200309
B1627494755563N00752203EA007500078300309
B1627504755566N00752211EA007510078300309
B1627514755567N00752219EA007510078300309
B1627524755567N00752227EA007510078300309
B1627534755565N00752234EA007500078200309
B1627544755562N00752241EA007490078200309
B1627554755558N00752247EA007490078200309
B1627564755553N00752252EA007470078100309
B1627574755548N00752254EA007480077900309
B1627584755542N00752255EA007470077800309
B1627594755537N00752253EA007460077700309
B1628004755532N00752250EA007470077700309
B1628014755527N00752245EA007470077700309
B1628024755524N00752240EA007480077800309
B1628034755521N00752234EA007490077900309
B1628044755518N00752229EA007490078000309
B1628054755516N00752223EA007490078200309
B1628064755513N00752218EA007490078300308
B1628074755511N00752213EA007480078300308
B1628084755509N00752208EA007470078200308
B1628094755508N00752201EA007460078100308
B1628104755509N00752195EA007440078000308
B1628114755511N00752189EA007430078000309
B1628124755513N00752185EA007420077900309
B1628134755517N00752182EA007410077800309
B1628144755521N00752180EA007390077600309
B1628154755525N00752178EA007370077500309
B1628164755529N00752176EA007360077300309
B1628174755533N00752175EA007350077100309
B1628184755538N00752175EA007340077000309
B1628194755543N00752175EA007330076900309
B1628204755549N00752174EA007320076800309
B1628214755553N00752171EA007310076800309
B1628224755558N00752168EA007310076700309
B1628234755561N00752164EA007290076600309
B1628244755564N00752159EA007300076600309
B1628254755566N00752155EA007280076600309
B1628264755569N00752150EA007270076500309
B1628274755570N00752145EA007260076400309
B1628284755571N00752139EA007250076300309
B1628294755570N00752133EA007230076100309
B1628304755568N00752128EA007230076000309
B1628314755565N00752123EA007210075900309
B1628324755562N00752120EA007200075700309
B1628334755557N00752118EA007190075600309
B1628344755552N00752120EA007180075500309
B1628354755547N00752123EA007170075400309
B1628364755543N00752128EA007170075300308
B1628374755540N00752135EA007160075200308
B1628384755538N00752144EA007150075100309
B1628394755539N00752153EA007160075000309
B1628404755541N00752161EA007140074900309
B1628414755546N00752166EA007130074800309
B1628424755551N00752168EA007140074700308
B1628434755557N00752169EA007140074600308
B1628444755562N00752169EA007130074700308
B1628454755566N00752170EA007130074700308
B1628464755571N00752170EA007120074600308
B1628474755575N00752168EA007110074400308
B1628484755580N00752166EA007100074300308
B1628494755584N00752163EA007100074200308
B1628504755588N00752158EA007100074200308
B1628514755590N00752153EA007090074200308
B1628524755592N00752148EA007100074300308
B1628534755594N00752142EA007100074300308
B1628544755595N00752136EA007100074300308
B1628554755596N00752130EA007100074300308
B1628564755595N00752123EA007090074300308
B1628574755593N00752118EA007080074200308
B1628584755591N00752112EA007080074200308
B1628594755588N00752107EA007080074200308
B1629004755585N00752103EA007070074200308
B1629014755581N00752099EA007060074100308
B1629024755577N00752097EA007050074000308
B1629034755572N00752096EA007040073900308
B1629044755567N00752096EA007020073800308
B1629054755561N00752097EA007010073600308
B1629064755555N00752096EA006990073400308
B1629074755550N00752094EA006970073200308
B1629084755545N00752089EA006950073100308
B1629094755543N00752082EA006940072900308
B1629104755542N00752075EA006930072800308
B1629114755543N00752067EA006920072500308
B1629124755545N00752061EA006900072400308
B1629134755549N00752056EA006880072300308
B1629144755552N00752053EA006860072100308
B1629154755557N00752052EA006840071900308
B1629164755562N00752052EA006810071700308
B1629174755566N00752056EA006800071500308
B1629184755571N00752060EA006790071400308
B1629194755575N00752064EA006770071300308
B1629204755580N00752068EA006760071100308
B1629214755584N00752072EA006760071000308
B1629224755587N00752076EA006730070800308
B1629234755591N00752081EA006720070700308
B1629244755595N00752088EA006700070500308
B1629254755598N00752094EA006680070400308
B1629264755602N00752100EA006680070200308
B1629274755605N00752107EA006670070100308
B1629284755610N00752111EA006670070000308
B1629294755614N00752114EA006680069800308
B1629304755620N00752116EA006680069700308
B1629314755626N00752117EA006690069700308
B1629324755630N00752120EA006690069600308
B1629334755634N00752123EA006680069600308
B1629344755638N00752128EA006680069500308
B1629354755641N00752133EA006670069500308
B1629364755644N00752138EA006680069500308
B1629374755647N00752144EA006650069500308
B1629384755648N00752151EA006650069500308
B1629394755649N00752158EA006640069400308
B1629404755650N00752166EA006630069300308
B1629414755652N00752173EA006610069200308
B1629424755655N00752177EA006590069100308
B1629434755659N00752181EA006580069000308
B1629444755663N00752184EA006580068900308
B1629454755666N00752186EA006580068900308
B1629464755671N00752187EA006560068800308
B1629474755675N00752187EA006550068700308
B1629484755679N00752186EA006540068700308
B1629494755683N00752184EA006540068600308
B1629504755687N00752183EA006520068400308
B1629514755691N00752182EA006510068300308
B1629524755696N00752180EA006490068100308
B1629534755700N00752178EA006480067900308
B1629544755705N00752178EA006460067700308
B1629554755710N00752178EA006440067600308
B1629564755715N00752179EA006420067400308
B1629574755720N00752180EA006410067300308
B1629584755725N00752181EA006410067200308
B1629594755730N00752181EA006400067100308
B1630004755734N00752181EA006390067000308
B1630014755739N00752183EA006400066900308
B1630024755744N00752184EA006400066900308
B1630034755748N00752186EA006380066800308
B1630044755753N00752188EA006370066800308
B1630054755757N00752189EA006360066700308
B1630064755761N00752190EA006340066600407
B1630074755765N00752191EA006340066400308
B1630084755769N00752190EA006320066200308
B1630094755774N00752189EA006310066000308
B1630104755779N00752187EA006320065900308
B1630114755783N00752184EA006310065800308
B1630124755787N00752181EA006290065800308
B1630134755790N00752178EA006280065800308
B1630144755793N00752174EA006280065700308
B1630154755795N00752170EA006260065500308
B1630164755797N00752165EA006240065400308
B1630174755799N00752159EA006250065200308
B1630184755799N00752152EA006240065100308
B1630194755798N00752144EA006220065000308
B1630204755796N00752137EA006210065000308
B1630214755794N00752131EA006200065000308
B1630224755791N00752125EA006200065000308
B1630234755788N00752120EA006170064800308
B1630244755785N00752114EA006190064700308
B1630254755782N00752108EA006170064600308
B1630264755779N00752102EA006150064400308
B1630274755775N00752095EA006150064400308
B1630284755771N00752090EA006150064400308
B1630294755769N00752083EA006140064300308
B1630304755767N00752077EA006120064200308
B1630314755767N00752071EA006110064000308
B1630324755768N00752064EA006090063800308
B1630334755771N00752059EA006080063700308
B1630344755774N00752054EA006060063600308
B1630354755778N00752051EA006050063500308
B1630364755782N00752049EA006030063300308
B1630374755787N00752049EA006020063200308
B1630384755792N00752050EA006020063000308
B1630394755796N00752052EA005990062900308
B1630404755800N00752055EA005980062800308
B1630414755804N00752058EA005970062700308
B1630424755808N00752060EA005950062500308
B1630434755813N00752060EA005930062300308
B1630444755818N00752059EA005920062100308
B1630454755823N00752057EA005910062000308
B1630464755828N00752054EA005900061900308
B1630474755832N00752052EA005900061900308
B1630484755836N00752049EA005890061700308
B1630494755841N00752046EA005880061600308
B1630504755845N00752044EA005880061600308
B1630514755849N00752041EA005880061500308
B1630524755853N00752040EA005870061500308
B1630534755857N00752039EA005860061400308
B1630544755860N00752040EA005850061300308
B1630554755864N00752041EA005830061100308
B1630564755867N00752043EA005810061000308
B1630574755871N00752044EA005790060800308
B1630584755876N00752045EA005780060700308
B1630594755880N00752044EA005770060600308
B1631004755883N00752043EA005760060500308
B1631014755886N00752041EA005740060400308
B1631024755889N00752038EA005740060400308
B1631034755893N00752035EA005730060300308
B1631044755896N00752032EA005720060200308
B1631054755899N00752029EA005710060100308
B1631064755903N00752027EA005700060000308
B1631074755907N00752024EA005700059900308
B1631084755910N00752022EA005680059800308
B1631094755914N00752019EA005670059600308
B1631104755917N00752017EA005650059500308
B1631114755921N00752013EA005650059300308
B1631124755925N00752010EA005640059200308
B1631134755928N00752006EA005630059100308
B1631144755932N00752003EA005610059000308
B1631154755935N00752000EA005610058800308
B1631164755938N00751998EA005590058600308
B1631174755942N00751996EA005570058500308
B1631184755947N00751995EA005550058300308
B1631194755951N00751995EA005540058200308
B1631204755955N00751996EA005540058100308
B1631214755959N00751997EA005520057900308
B1631224755963N00751998EA005500057800308
B1631234755967N00751999EA005490057700308
B1631244755971N00751998EA005470057500308
B1631254755973N00751994EA005440057300308
B1631264755975N00751987EA005410057100308
B1631274755974N00751979EA005400056900308
B1631284755971N00751972EA005380056800308
B1631294755967N00751968EA005360056600308
B1631304755962N00751967EA005350056400308
B1631314755957N00751969EA005330056300308
B1631324755952N00751975EA005320056100308
B1631334755949N00751982EA005310055900308
B1631344755947N00751989EA005290055600308
B1631354755948N00751996EA005280055400308
B1631364755950N00752001EA005260055300308
B1631374755954N00752003EA005250055100308
B1631384755958N00752002EA005230055000308
B1631394755962N00751999EA005220054900308
B1631404755965N00751996EA005200054800308
B1631414755969N00751994EA005190054700308
B1631424755973N00751992EA005180054500308
B1631434755976N00751989EA005160054400308
B1631444755979N00751985EA005140054200308
B1631454755983N00751981EA005130054100308
B1631464755986N00751977EA005120053900308
B1631474755990N00751975EA005100053700308
B1631484755994N00751973EA005090053600308
B1631494755998N00751971EA005080053500308
B1631504756002N00751969EA005080053400308
B1631514756005N00751966EA005070053300308
B1631524756009N00751964EA005050053200308
B1631534756014N00751962EA005040053000308
B1631544756018N00751961EA005020052900308
B1631554756023N00751960EA005020052800308
B1631564756027N00751959EA005010052800308
B1631574756032N00751959EA005000052700308
B1631584756036N00751957EA004990052600308
B1631594756040N00751954EA004980052500308
B1632004756043N00751950EA004960052400308
B1632014756047N00751945EA004960052300308
B1632024756050N00751941EA004950052200308
B1632034756053N00751937EA004940052100308
B1632044756056N00751933EA004920051900308
B1632054756058N00751928EA004910051700308
B1632064756060N00751921EA004890051600308
B1632074756061N00751915EA004880051400308
B1632084756063N00751908EA004880051300308
B1632094756063N00751902EA004860051200308
B1632104756063N00751896EA004850051000308
B1632114756061N00751889EA004820050800308
B1632124756057N00751882EA004820050700308
B1632134756053N00751877EA004810050600308
B1632144756049N00751873EA004800050400308
B1632154756044N00751871EA004770050400308
B1632164756038N00751870EA004750050200308
B1632174756031N00751869EA004740050000308
B1632184756025N00751870EA004730049900308
B1632194756019N00751869EA004720049800308
B1632204756014N00751868EA004720049800308
B1632214756010N00751868EA004710049800308
B1632224756007N00751868EA004720049800308
B1632234756005N00751868EA004720049700308
B1632244756003N00751869EA004720049700308
B1632254756002N00751870EA004720049700307
B1632264756001N00751871EA004720049700308
B1632274756000N00751871EA004720049700307
B1632284755999N00751872EA004720049700308
B1632294755998N00751872EA004720049700308
B1632304755998N00751873EA004720049700308
B1632314755997N00751874EA004720049700308
B1632324755997N00751874EA004720049700308
B1632334755997N00751874EA004710049700308
B1632344755997N00751874EA004710049700308
B1632354755997N00751874EA004710049700308
B1632364755997N00751874EA004720049700308
B1632374755997N00751874EA004720049700308
B1632384755997N00751874EA004720049700308
B1632394755998N00751874EA004710049700308
B1632404755998N00751875EA004710049700308
B1632414755998N00751875EA004710049700308
B1632424755998N00751875EA004710049800308
B1632434755998N00751875EA004710049800308
B1632444755998N00751876EA004710049800308
B1632454755998N00751876EA004710049800308
B1632464755998N00751876EA004710049800308
B1632474755999N00751876EA004710049800308
B1632484755999N00751876EA004710049800308
B1632494755999N00751876EA004710049900308
B1632504755999N00751876EA004710049900308
B1632514755999N00751876EA004710049800308
B1632524755999N00751876EA004710049800308
B1632534755999N00751876EA004710049800308
B1632544755999N00751876EA004710049800308
B1632554755999N00751876EA004710049800308
B1632564755999N00751876EA004710049800308
B1632574755999N00751876EA004710049800308
B1632584755999N00751877EA004710049800308
B1632594755998N00751877EA004710049800308
B1633004755998N00751877EA004710049800308
B1633014755998N00751877EA004710049800308
B1633024755998N00751877EA004710049800308
B1633034755998N00751876EA004710049800308
B1633044755998N00751876EA004710049800308
G5A29A1C1E356975A0F702C7FFBE3904AE1310C157BD3D137D668A4A924886ED7
